ORBCOMM-X               
1 21576U 91050C   24325.61027116  .00000686  00000+0  21814-3 0  9994
2 21576  98.3724  30.2063 0004825  96.6885 263.4855 14.42924264752039
ORBCOMM FM01            
1 23545U 95017A   24325.19959820  .00012839  00000+0  14992-2 0  9999
2 23545  69.9648 233.5285 0007515 278.6969  81.3332 14.85267282581421
ORBCOMM FM02            
1 23546U 95017B   24326.20946039  .00014614  00000+0  17091-2 0  9997
2 23546  69.9667 250.7117 0009578 277.3069  82.6994 14.85148550581510
ORBCOMM FM08            
1 25112U 97084A   24326.24509579  .00003950  00000+0  11772-2 0  9993
2 25112  45.0140 285.0791 0007764 288.0649  71.9356 14.44336426411295
ORBCOMM FM10            
1 25113U 97084B   24326.89015632  .00004566  00000+0  13583-2 0  9993
2 25113  45.0152 284.0396 0005092 267.2021  92.8247 14.44199016586537
ORBCOMM FM11            
1 25114U 97084C   24326.86074554  .00003458  00000+0  10438-2 0  9994
2 25114  45.0138 284.4596 0006003 264.9766  95.0400 14.43976873411492
ORBCOMM FM12            
1 25115U 97084D   24326.89428662  .00003977  00000+0  11940-2 0  9996
2 25115  45.0145 284.0578 0004992 267.6803  92.3476 14.43980187411298
ORBCOMM FM09            
1 25116U 97084E   24326.35815806  .00003428  00000+0  10366-2 0  9990
2 25116  45.0152 287.3826 0005727 247.8200 112.2044 14.43908485411459
